{"type": "FeatureCollection", "features": [ {"type": "Feature", "properties": {"norad_id": 34077, "name": "IRIDIUM 33 DEB", "group": "iridium-33-debris", "lat": -41.63705668118207, "lon": 51.08040425570637, "alt_km": 686.177169315044, "timestamp": "2025-12-06T09:34:17.299248+00:00", "meta": {"OBJECT_NAME": "IRIDIUM 33 DEB", "OBJECT_ID": "1997-051CL", "EPOCH": "2025-12-05T23:05:18.140064", "MEAN_MOTION": 14.64674257, "ECCENTRICITY": 0.00107697, "INCLINATION": 86.387, "RA_OF_ASC_NODE": 54.4927, "ARG_OF_PERICENTER": 60.5713, "MEAN_ANOMALY": 116.2459, "EPHEMERIS_TYPE": 0, "CLASSIFICATION_TYPE": "U", "NORAD_CAT_ID": 34077, "ELEMENT_SET_NO": 999, "REV_AT_EPOCH": 88233, "BSTAR": 0.0027478125, "MEAN_MOTION_DOT": 0.00014664, "MEAN_MOTION_DDOT": 0}, "tle": {"line1": "1 34077U 97051CL  25339.96201551  .00014664  00000+0  27478-2 0  9994", "line2": "2 34077  86.3870  54.4927 0010769  60.5713 116.2459 14.64674257882339"}}, "geometry": {"type": "Point", "coordinates": [51.08040425570637, -41.63705668118207]}}, {"type": "Feature", "properties": {"norad_id": 34079, "name": "IRIDIUM 33 DEB", "group": "iridium-33-debris", "lat": -65.28795071755896, "lon": -160.54096697230074, "alt_km": 629.8161446478771, "timestamp": "2025-12-06T09:34:17.299258+00:00", "meta": {"OBJECT_NAME": "IRIDIUM 33 DEB", "OBJECT_ID": "1997-051CN", "EPOCH": "2025-12-05T15:13:31.729728", "MEAN_MOTION": 14.83252124, "ECCENTRICITY": 0.00064252, "INCLINATION": 86.377, "RA_OF_ASC_NODE": 11.8929, "ARG_OF_PERICENTER": 29.6936, "MEAN_ANOMALY": 96.726, "EPHEMERIS_TYPE": 0, "CLASSIFICATION_TYPE": "U", "NORAD_CAT_ID": 34079, "ELEMENT_SET_NO": 999, "REV_AT_EPOCH": 88872, "BSTAR": 0.0027520243, "MEAN_MOTION_DOT": 0.00022575, "MEAN_MOTION_DDOT": 0}, "tle": {"line1": "1 34079U 97051CN  25339.63439502  .00022575  00000+0  27520-2 0  9997", "line2": "2 34079  86.3770  11.8929 0006425  29.6936  96.7260 14.83252124888723"}}, "geometry": {"type": "Point", "coordinates": [-160.54096697230074, -65.28795071755896]}}, {"type": "Feature", "properties": {"norad_id": 34088, "name": "IRIDIUM 33 DEB", "group": "iridium-33-debris", "lat": 19.660892135140873, "lon": -147.65692018269033, "alt_km": 592.5593585865699, "timestamp": "2025-12-06T09:34:17.299268+00:00", "meta": {"OBJECT_NAME": "IRIDIUM 33 DEB", "OBJECT_ID": "1997-051CX", "EPOCH": "2025-12-05T15:39:48.591072", "MEAN_MOTION": 14.90862285, "ECCENTRICITY": 0.00051464, "INCLINATION": 86.3855, "RA_OF_ASC_NODE": 33.9796, "ARG_OF_PERICENTER": 202.9719, "MEAN_ANOMALY": 275.0833, "EPHEMERIS_TYPE": 0, "CLASSIFICATION_TYPE": "U", "NORAD_CAT_ID": 34088, "ELEMENT_SET_NO": 999, "REV_AT_EPOCH": 88636, "BSTAR": 0.0043568, "MEAN_MOTION_DOT": 0.00043158, "MEAN_MOTION_DDOT": 0}, "tle": {"line1": "1 34088U 97051CX  25339.65264573  .00043158  00000+0  43568-2 0  9993", "line2": "2 34088  86.3855  33.9796 0005146 202.9719 275.0833 14.90862285886367"}}, "geometry": {"type": "Point", "coordinates": [-147.65692018269033, 19.660892135140873]}}, {"type": "Feature", "properties": {"norad_id": 34091, "name": "IRIDIUM 33 DEB", "group": "iridium-33-debris", "lat": -26.60733890588497, "lon": -108.42712705184316, "alt_km": 639.4134876246089, "timestamp": "2025-12-06T09:34:17.299278+00:00", "meta": {"OBJECT_NAME": "IRIDIUM 33 DEB", "OBJECT_ID": "1997-051DA", "EPOCH": "2025-12-05T18:02:41.921376", "MEAN_MOTION": 14.81003104, "ECCENTRICITY": 0.00331885, "INCLINATION": 86.3427, "RA_OF_ASC_NODE": 70.0326, "ARG_OF_PERICENTER": 318.3177, "MEAN_ANOMALY": 41.5515, "EPHEMERIS_TYPE": 0, "CLASSIFICATION_TYPE": "U", "NORAD_CAT_ID": 34091, "ELEMENT_SET_NO": 999, "REV_AT_EPOCH": 87763, "BSTAR": 0.0082623367, "MEAN_MOTION_DOT": 0.00065145, "MEAN_MOTION_DDOT": 0}, "tle": {"line1": "1 34091U 97051DA  25339.75187409  .00065145  00000+0  82623-2 0  9995", "line2": "2 34091  86.3427  70.0326 0033188 318.3177  41.5515 14.81003104877634"}}, "geometry": {"type": "Point", "coordinates": [-108.42712705184316, -26.60733890588497]}}, {"type": "Feature", "properties": {"norad_id": 34097, "name": "IRIDIUM 33 DEB", "group": "iridium-33-debris", "lat": 79.79264480819266, "lon": 25.868425421822486, "alt_km": 736.5531499094532, "timestamp": "2025-12-06T09:34:17.299288+00:00", "meta": {"OBJECT_NAME": "IRIDIUM 33 DEB", "OBJECT_ID": "1997-051DG", "EPOCH": "2025-12-05T13:06:59.796288", "MEAN_MOTION": 14.34691664, "ECCENTRICITY": 0.00834078, "INCLINATION": 86.1999, "RA_OF_ASC_NODE": 4.5829, "ARG_OF_PERICENTER": 25.5737, "MEAN_ANOMALY": 334.9547, "EPHEMERIS_TYPE": 0, "CLASSIFICATION_TYPE": "U", "NORAD_CAT_ID": 34097, "ELEMENT_SET_NO": 999, "REV_AT_EPOCH": 87016, "BSTAR": 0.0024289564, "MEAN_MOTION_DOT": 7.169e-05, "MEAN_MOTION_DDOT": 0}, "tle": {"line1": "1 34097U 97051DG  25339.54652542  .00007169  00000+0  24290-2 0  9991", "line2": "2 34097  86.1999   4.5829 0083407  25.5737 334.9547 14.34691664870167"}}, "geometry": {"type": "Point", "coordinates": [25.868425421822486, 79.79264480819266]}}, {"type": "Feature", "properties": {"norad_id": 34145, "name": "IRIDIUM 33 DEB", "group": "iridium-33-debris", "lat": 1.6061703552846773, "lon": 155.24430802904695, "alt_km": 736.7319911523382, "timestamp": "2025-12-06T09:34:17.299299+00:00", "meta": {"OBJECT_NAME": "IRIDIUM 33 DEB", "OBJECT_ID": "1997-051DY", "EPOCH": "2025-12-05T17:45:58.616928", "MEAN_MOTION": 14.42213658, "ECCENTRICITY": 0.00554485, "INCLINATION": 86.2109, "RA_OF_ASC_NODE": 335.644, "ARG_OF_PERICENTER": 116.0752, "MEAN_ANOMALY": 244.6171, "EPHEMERIS_TYPE": 0, "CLASSIFICATION_TYPE": "U", "NORAD_CAT_ID": 34145, "ELEMENT_SET_NO": 999, "REV_AT_EPOCH": 87537, "BSTAR": 0.0019099545, "MEAN_MOTION_DOT": 6.43e-05, "MEAN_MOTION_DDOT": 0}, "tle": {"line1": "1 34145U 97051DY  25339.74026177  .00006430  00000+0  19100-2 0  9990", "line2": "2 34145  86.2109 335.6440 0055448 116.0752 244.6171 14.42213658875379"}}, "geometry": {"type": "Point", "coordinates": [155.24430802904695, 1.6061703552846773]}}, {"type": "Feature", "properties": {"norad_id": 34146, "name": "IRIDIUM 33 DEB", "group": "iridium-33-debris", "lat": 21.300094725061822, "lon": -5.945971334481793, "alt_km": 741.9415678164187, "timestamp": "2025-12-06T09:34:17.299309+00:00", "meta": {"OBJECT_NAME": "IRIDIUM 33 DEB", "OBJECT_ID": "1997-051DZ", "EPOCH": "2025-12-05T23:50:42.182592", "MEAN_MOTION": 14.48976564, "ECCENTRICITY": 0.0025058, "INCLINATION": 86.2832, "RA_OF_ASC_NODE": 352.7807, "ARG_OF_PERICENTER": 245.7386, "MEAN_ANOMALY": 182.8661, "EPHEMERIS_TYPE": 0, "CLASSIFICATION_TYPE": "U", "NORAD_CAT_ID": 34146, "ELEMENT_SET_NO": 999, "REV_AT_EPOCH": 88009, "BSTAR": 0.0016475048, "MEAN_MOTION_DOT": 6.288e-05, "MEAN_MOTION_DDOT": 0}, "tle": {"line1": "1 34146U 97051DZ  25339.99354378  .00006288  00000+0  16475-2 0  9998", "line2": "2 34146  86.2832 352.7807 0025058 245.7386 182.8661 14.48976564880097"}}, "geometry": {"type": "Point", "coordinates": [-5.945971334481793, 21.300094725061822]}}, {"type": "Feature", "properties": {"norad_id": 34159, "name": "IRIDIUM 33 DEB", "group": "iridium-33-debris", "lat": -23.7257064019681, "lon": 49.33822766042898, "alt_km": 752.2282324445314, "timestamp": "2025-12-06T09:34:17.299319+00:00", "meta": {"OBJECT_NAME": "IRIDIUM 33 DEB", "OBJECT_ID": "1997-051EN", "EPOCH": "2025-12-05T15:19:00.661440", "MEAN_MOTION": 14.38466769, "ECCENTRICITY": 0.00263093, "INCLINATION": 86.3517, "RA_OF_ASC_NODE": 51.2692, "ARG_OF_PERICENTER": 312.8166, "MEAN_ANOMALY": 47.082, "EPHEMERIS_TYPE": 0, "CLASSIFICATION_TYPE": "U", "NORAD_CAT_ID": 34159, "ELEMENT_SET_NO": 999, "REV_AT_EPOCH": 87857, "BSTAR": 0.00075266665, "MEAN_MOTION_DOT": 2.325e-05, "MEAN_MOTION_DDOT": 0}, "tle": {"line1": "1 34159U 97051EN  25339.63820210  .00002325  00000+0  75267-3 0  9999", "line2": "2 34159  86.3517  51.2692 0026309 312.8166  47.0820 14.38466769878576"}}, "geometry": {"type": "Point", "coordinates": [49.33822766042898, -23.7257064019681]}}, {"type": "Feature", "properties": {"norad_id": 34350, "name": "IRIDIUM 33 DEB", "group": "iridium-33-debris", "lat": -28.085297878297496, "lon": -172.47723226132115, "alt_km": 737.2574764869769, "timestamp": "2025-12-06T09:34:17.299330+00:00", "meta": {"OBJECT_NAME": "IRIDIUM 33 DEB", "OBJECT_ID": "1997-051ES", "EPOCH": "2025-12-05T13:22:41.911392", "MEAN_MOTION": 14.45362197, "ECCENTRICITY": 0.00220718, "INCLINATION": 86.3281, "RA_OF_ASC_NODE": 5.9239, "ARG_OF_PERICENTER": 157.7944, "MEAN_ANOMALY": 354.8639, "EPHEMERIS_TYPE": 0, "CLASSIFICATION_TYPE": "U", "NORAD_CAT_ID": 34350, "ELEMENT_SET_NO": 999, "REV_AT_EPOCH": 88189, "BSTAR": 0.00057104893, "MEAN_MOTION_DOT": 2.032e-05, "MEAN_MOTION_DDOT": 0}, "tle": {"line1": "1 34350U 97051ES  25339.55742953  .00002032  00000+0  57105-3 0  9996", "line2": "2 34350  86.3281   5.9239 0022071 157.7944 354.8639 14.45362197881896"}}, "geometry": {"type": "Point", "coordinates": [-172.47723226132115, -28.085297878297496]}}, {"type": "Feature", "properties": {"norad_id": 34366, "name": "IRIDIUM 33 DEB", "group": "iridium-33-debris", "lat": -21.168269259732067, "lon": 50.66206790422182, "alt_km": 733.6237424974452, "timestamp": "2025-12-06T09:34:17.299340+00:00", "meta": {"OBJECT_NAME": "IRIDIUM 33 DEB", "OBJECT_ID": "1997-051FJ", "EPOCH": "2025-12-05T16:05:01.645152", "MEAN_MOTION": 14.53959428, "ECCENTRICITY": 0.00219245, "INCLINATION": 86.3705, "RA_OF_ASC_NODE": 52.3872, "ARG_OF_PERICENTER": 162.3006, "MEAN_ANOMALY": 325.0781, "EPHEMERIS_TYPE": 0, "CLASSIFICATION_TYPE": "U", "NORAD_CAT_ID": 34366, "ELEMENT_SET_NO": 999, "REV_AT_EPOCH": 88079, "BSTAR": 0.0022295515, "MEAN_MOTION_DOT": 9.442e-05, "MEAN_MOTION_DDOT": 0}, "tle": {"line1": "1 34366U 97051FJ  25339.67015793  .00009442  00000+0  22296-2 0  9995", "line2": "2 34366  86.3705  52.3872 0021924 162.3006 325.0781 14.53959428880794"}}, "geometry": {"type": "Point", "coordinates": [50.66206790422182, -21.168269259732067]}}]}